[{"OBJECT_NAME":"ASTROCAST-0404","OBJECT_ID":"2023-001DH","EPOCH":"2026-03-09T19:24:02.920896","MEAN_MOTION":15.26309833,"ECCENTRICITY":0.00068478,"INCLINATION":97.5646,"RA_OF_ASC_NODE":161.5422,"ARG_OF_PERICENTER":1.1317,"MEAN_ANOMALY":358.9936,"EPHEMERIS_TYPE":0,"CLASSIFICATION_TYPE":"U","NORAD_CAT_ID":55112,"ELEMENT_SET_NO":999,"REV_AT_EPOCH":12936,"BSTAR":0.00034435555,"MEAN_MOTION_DOT":8.87e-5,"MEAN_MOTION_DDOT":0},{"OBJECT_NAME":"STARLINK-35305","OBJECT_ID":"2025-268E","EPOCH":"2026-03-08T23:48:22.226688","MEAN_MOTION":15.27536182,"ECCENTRICITY":0.0001415,"INCLINATION":42.9995,"RA_OF_ASC_NODE":350.9526,"ARG_OF_PERICENTER":290.3728,"MEAN_ANOMALY":69.6972,"EPHEMERIS_TYPE":0,"CLASSIFICATION_TYPE":"U","NORAD_CAT_ID":66561,"ELEMENT_SET_NO":999,"REV_AT_EPOCH":1785,"BSTAR":-0.0011986283,"MEAN_MOTION_DOT":-0.00033055,"MEAN_MOTION_DDOT":0}]
